{"type":"FeatureCollection","features":[{"type":"Feature","properties":{"GID_2":"VNM.21.12_1","GID_0":"VNM","COUNTRY":"Vietnam","GID_1":"VNM.21_1","NAME_1":"GiaLai","NL_NAME_1":"NA","NAME_2":"KBang","VARNAME_2":"KBang","NL_NAME_2":"NA","TYPE_2":"Huyện","ENGTYPE_2":"District","CC_2":"NA","HASC_2":"VN.DC.ES"},"geometry":{"type":"MultiPolygon","coordinates":[[[[108.6425,14.0293],[108.6311,14.0211],[108.6251,14.018],[108.6196,14.0185],[108.6152,14.0145],[108.6084,14.0127],[108.6055,14.0094],[108.6054,14.0113],[108.6011,14.0145],[108.6018,14.0153],[108.5955,14.0205],[108.5938,14.0196],[108.5883,13.9999],[108.5838,13.9997],[108.5805,14.0154],[108.5686,14.0063],[108.5623,14.0108],[108.5542,14.0077],[108.5468,14.0124],[108.5429,14.011],[108.5372,14.0134],[108.5293,14.0121],[108.5198,14.0133],[108.5181,14.0182],[108.511,14.026],[108.493,14.0336],[108.4899,14.0361],[108.4869,14.0428],[108.4788,14.0439],[108.4697,14.0579],[108.4654,14.0584],[108.4628,14.0559],[108.4565,14.0572],[108.4532,14.0634],[108.4461,14.0635],[108.4447,14.0681],[108.4458,14.0721],[108.4561,14.0795],[108.4574,14.0838],[108.4635,14.0918],[108.4611,14.1014],[108.4615,14.1167],[108.4577,14.1202],[108.4504,14.1352],[108.4463,14.1371],[108.4437,14.1441],[108.4427,14.1541],[108.4355,14.1691],[108.4189,14.1691],[108.4136,14.1639],[108.4088,14.1646],[108.4052,14.168],[108.3984,14.1612],[108.3935,14.159],[108.3935,14.1553],[108.387,14.1564],[108.3785,14.1723],[108.3738,14.1717],[108.37,14.1748],[108.3673,14.1912],[108.3634,14.1964],[108.3617,14.2079],[108.3576,14.2058],[108.3533,14.2099],[108.3511,14.2077],[108.3489,14.208],[108.3459,14.2156],[108.3383,14.2226],[108.3376,14.2282],[108.3334,14.2299],[108.3271,14.2297],[108.3217,14.2349],[108.3177,14.2446],[108.3178,14.2519],[108.32,14.2587],[108.3193,14.2639],[108.322,14.2671],[108.3216,14.2747],[108.3229,14.2767],[108.3206,14.287],[108.3146,14.2895],[108.3153,14.2939],[108.3123,14.2979],[108.3116,14.3059],[108.3148,14.3203],[108.3144,14.3247],[108.3084,14.334],[108.3111,14.3378],[108.3122,14.3465],[108.3066,14.3657],[108.31,14.371],[108.3048,14.3797],[108.2974,14.3843],[108.2984,14.3867],[108.2966,14.3976],[108.2917,14.4057],[108.2983,14.418],[108.3062,14.4218],[108.3125,14.4321],[108.3165,14.4342],[108.3236,14.4419],[108.3243,14.4535],[108.3267,14.4577],[108.3303,14.4588],[108.332,14.463],[108.364,14.4948],[108.3682,14.5029],[108.38,14.5138],[108.3833,14.5204],[108.383,14.5261],[108.3779,14.5284],[108.3715,14.5369],[108.3735,14.5411],[108.3739,14.5486],[108.3676,14.5564],[108.3593,14.5628],[108.3594,14.5656],[108.357,14.5698],[108.3582,14.5801],[108.3671,14.5856],[108.3749,14.6009],[108.3826,14.5984],[108.3859,14.6022],[108.3921,14.6],[108.3938,14.6024],[108.3981,14.6008],[108.4093,14.5896],[108.4155,14.5708],[108.4271,14.5649],[108.438,14.5554],[108.4421,14.5543],[108.4584,14.5529],[108.489,14.5441],[108.5052,14.5448],[108.5134,14.5505],[108.5282,14.5553],[108.5313,14.566],[108.5298,14.569],[108.5323,14.5776],[108.5476,14.589],[108.5513,14.5844],[108.5551,14.5854],[108.5602,14.5842],[108.5663,14.579],[108.571,14.578],[108.5749,14.5709],[108.5933,14.5643],[108.5967,14.5536],[108.5956,14.5465],[108.6064,14.5335],[108.6118,14.5335],[108.6132,14.5316],[108.6178,14.5362],[108.6186,14.5409],[108.6276,14.5437],[108.6298,14.5303],[108.6351,14.525],[108.6299,14.5179],[108.6327,14.5105],[108.6367,14.5054],[108.632,14.4966],[108.6394,14.4855],[108.6371,14.4801],[108.6435,14.4744],[108.6401,14.4652],[108.6405,14.453],[108.6388,14.4501],[108.6317,14.446],[108.6211,14.4494],[108.6169,14.4559],[108.6133,14.4561],[108.6102,14.4539],[108.6056,14.4577],[108.6011,14.4586],[108.6053,14.4495],[108.6079,14.4479],[108.6133,14.4393],[108.6107,14.4332],[108.6114,14.4247],[108.6162,14.4206],[108.6178,14.417],[108.6141,14.4123],[108.6184,14.4091],[108.6274,14.3894],[108.6259,14.3854],[108.63,14.3783],[108.6328,14.3767],[108.6344,14.3723],[108.6243,14.3551],[108.6349,14.3474],[108.6369,14.3386],[108.6407,14.3312],[108.6403,14.3275],[108.6471,14.3208],[108.6476,14.3187],[108.6435,14.3094],[108.6468,14.3049],[108.6475,14.2967],[108.6555,14.2894],[108.6564,14.2843],[108.661,14.2803],[108.6547,14.2709],[108.6565,14.2635],[108.6556,14.2596],[108.6596,14.2542],[108.6662,14.2517],[108.6661,14.246],[108.6685,14.2421],[108.6657,14.2337],[108.6704,14.2299],[108.6705,14.224],[108.6767,14.2233],[108.6773,14.2157],[108.6747,14.2073],[108.6823,14.199],[108.6809,14.1958],[108.682,14.1927],[108.6814,14.1902],[108.6744,14.183],[108.678,14.1782],[108.6684,14.1703],[108.6672,14.1663],[108.6717,14.1603],[108.679,14.1574],[108.6767,14.1492],[108.6827,14.1418],[108.6829,14.1323],[108.6868,14.1283],[108.6816,14.1276],[108.6822,14.125],[108.6614,14.1095],[108.659,14.1002],[108.6597,14.0936],[108.6579,14.0927],[108.6577,14.0879],[108.6513,14.0803],[108.6468,14.0792],[108.6531,14.0665],[108.6519,14.0599],[108.6619,14.0327],[108.6566,14.0315],[108.6525,14.0268],[108.6425,14.0293]]]]}},{"type":"Feature","properties":{"GID_2":"VNM.21.15_1","GID_0":"VNM","COUNTRY":"Vietnam","GID_1":"VNM.21_1","NAME_1":"GiaLai","NL_NAME_1":"NA","NAME_2":"MangYang","VARNAME_2":"MangYang","NL_NAME_2":"NA","TYPE_2":"Huyện","ENGTYPE_2":"District","CC_2":"NA","HASC_2":"VN.HD.GL"},"geometry":{"type":"MultiPolygon","coordinates":[[[[108.2843,13.6896],[108.2644,13.705],[108.2528,13.7088],[108.2392,13.6966],[108.2334,13.6838],[108.2192,13.6863],[108.1828,13.6831],[108.1844,13.7163],[108.1896,13.7491],[108.1809,13.7494],[108.1705,13.7533],[108.1691,13.7561],[108.1736,13.7577],[108.1738,13.761],[108.1771,13.7647],[108.1755,13.7697],[108.1696,13.7701],[108.1656,13.7721],[108.1673,13.7768],[108.1698,13.7785],[108.174,13.7776],[108.1763,13.7802],[108.1734,13.7861],[108.1694,13.7872],[108.1656,13.7859],[108.1605,13.7894],[108.1657,13.801],[108.1652,13.8042],[108.1677,13.8075],[108.1641,13.8081],[108.1625,13.8128],[108.1664,13.816],[108.174,13.8269],[108.1738,13.833],[108.1793,13.8365],[108.1776,13.8408],[108.1786,13.8433],[108.188,13.84],[108.1874,13.8424],[108.189,13.8454],[108.1857,13.8484],[108.1897,13.8516],[108.1922,13.8491],[108.1959,13.8487],[108.2049,13.8504],[108.2101,13.8571],[108.213,13.8546],[108.2161,13.8545],[108.219,13.8608],[108.2251,13.8653],[108.2185,13.8699],[108.2233,13.87],[108.2273,13.8727],[108.2325,13.8831],[108.2335,13.8884],[108.2448,13.8925],[108.244,13.8982],[108.2372,13.905],[108.2348,13.905],[108.2323,13.9073],[108.237,13.9126],[108.236,13.917],[108.2321,13.9175],[108.2282,13.9125],[108.2225,13.9141],[108.2234,13.9165],[108.2311,13.9183],[108.2304,13.9203],[108.2266,13.9216],[108.2257,13.9266],[108.2283,13.929],[108.2324,13.9276],[108.2307,13.9387],[108.2356,13.942],[108.2345,13.944],[108.2297,13.9424],[108.2239,13.9438],[108.2231,13.9457],[108.2271,13.9451],[108.2281,13.9484],[108.2251,13.9574],[108.226,13.959],[108.2329,13.9568],[108.2341,13.959],[108.2331,13.9612],[108.2344,13.9616],[108.2324,13.9645],[108.2331,13.9664],[108.2261,13.972],[108.2273,13.9834],[108.2233,13.9924],[108.2229,13.9988],[108.2188,14.0038],[108.2202,14.0122],[108.2172,14.0123],[108.2242,14.0145],[108.2123,14.0303],[108.215,14.0403],[108.2109,14.0542],[108.2155,14.0658],[108.2164,14.0743],[108.2227,14.0802],[108.2307,14.0754],[108.2356,14.076],[108.2397,14.0707],[108.2396,14.0667],[108.2479,14.0708],[108.2562,14.0713],[108.2632,14.0754],[108.26,14.0824],[108.2542,14.0879],[108.2553,14.0952],[108.261,14.0992],[108.2628,14.1047],[108.2618,14.1101],[108.2572,14.1163],[108.269,14.1197],[108.2611,14.1397],[108.2622,14.1456],[108.2564,14.1503],[108.2488,14.1498],[108.2553,14.1598],[108.2577,14.1581],[108.2655,14.1576],[108.266,14.163],[108.2643,14.1658],[108.2675,14.1682],[108.2665,14.1723],[108.2599,14.1807],[108.2621,14.1907],[108.2655,14.1932],[108.2652,14.2009],[108.2599,14.2049],[108.2658,14.21],[108.2626,14.2127],[108.2682,14.2193],[108.269,14.2239],[108.2681,14.225],[108.2649,14.224],[108.2644,14.2253],[108.2683,14.2261],[108.269,14.2305],[108.2746,14.232],[108.2774,14.2367],[108.2809,14.2386],[108.2962,14.2292],[108.3064,14.2311],[108.3098,14.2393],[108.3169,14.235],[108.3217,14.2349],[108.3271,14.2297],[108.3334,14.2299],[108.3376,14.2282],[108.3383,14.2226],[108.3459,14.2156],[108.3489,14.208],[108.3511,14.2077],[108.3533,14.2099],[108.3576,14.2058],[108.3617,14.2079],[108.3634,14.1964],[108.3673,14.1912],[108.37,14.1748],[108.3738,14.1717],[108.3785,14.1723],[108.387,14.1564],[108.3935,14.1553],[108.3935,14.159],[108.3984,14.1612],[108.4052,14.168],[108.4088,14.1646],[108.4136,14.1639],[108.4189,14.1691],[108.4355,14.1691],[108.4427,14.1541],[108.4437,14.1441],[108.4463,14.1371],[108.4504,14.1352],[108.4577,14.1202],[108.4615,14.1167],[108.4611,14.1014],[108.4635,14.0918],[108.4574,14.0838],[108.4561,14.0795],[108.4482,14.075],[108.4458,14.0721],[108.4456,14.069],[108.4343,14.0569],[108.431,14.0384],[108.4344,14.0286],[108.4238,14.0287],[108.4209,14.0246],[108.4215,14.0154],[108.4203,14.0127],[108.4232,14.007],[108.4183,14.0025],[108.4164,13.9977],[108.4148,13.9826],[108.4167,13.9697],[108.4112,13.9592],[108.4064,13.957],[108.404,13.951],[108.3949,13.9505],[108.3916,13.9459],[108.3893,13.9377],[108.3839,13.9334],[108.3724,13.9317],[108.3766,13.9254],[108.3771,13.9201],[108.375,13.9182],[108.373,13.9064],[108.3705,13.9009],[108.3661,13.8977],[108.3696,13.8778],[108.368,13.8732],[108.3698,13.8709],[108.3699,13.8664],[108.3678,13.8611],[108.3719,13.8514],[108.3738,13.8501],[108.3644,13.8477],[108.3665,13.8442],[108.3653,13.8401],[108.3672,13.8344],[108.3645,13.8329],[108.3683,13.8285],[108.3711,13.8186],[108.368,13.8143],[108.3667,13.8022],[108.363,13.801],[108.3644,13.7897],[108.362,13.7825],[108.3586,13.7775],[108.3508,13.7739],[108.3604,13.7397],[108.3659,13.7339],[108.3672,13.7289],[108.3691,13.7286],[108.3729,13.7178],[108.3704,13.7145],[108.378,13.7087],[108.3782,13.7028],[108.3762,13.6989],[108.3742,13.7003],[108.3733,13.6971],[108.3788,13.6939],[108.3555,13.6889],[108.336,13.6732],[108.3321,13.679],[108.3285,13.6781],[108.3279,13.6766],[108.3223,13.6775],[108.3056,13.6745],[108.3013,13.6754],[108.2945,13.6782],[108.2843,13.6896]]]]}}]}