{
  "type": "FeatureCollection",
  "features": [
    {
      "type": "Feature",
      "properties": {
        "id": "1",
        "name": "Khu vực Rủi ro Cao - Kon Tum",
        "risk_level": "high",
        "deforestation_rate": 8.5
      },
      "geometry": {
        "type": "Polygon",
        "coordinates": [
          [
            [107.8, 14.2],
            [108.1, 14.2],
            [108.0, 14.5],
            [107.7, 14.4],
            [107.8, 14.2]
          ]
        ]
      }
    },
    {
      "type": "Feature",
      "properties": {
        "id": "2",
        "name": "Khu vực Rủi ro Vừa - Gia Lai",
        "risk_level": "medium",
        "deforestation_rate": 4.2
      },
      "geometry": {
        "type": "Polygon",
        "coordinates": [
          [
            [107.9, 13.8],
            [108.3, 13.7],
            [108.4, 14.0],
            [108.0, 14.1],
            [107.9, 13.8]
          ]
        ]
      }
    },
    {
      "type": "Feature",
      "properties": {
        "id": "3",
        "name": "Khu vực Rủi ro Thấp - Đắk Lắk",
        "risk_level": "low",
        "deforestation_rate": 1.1
      },
      "geometry": {
        "type": "Polygon",
        "coordinates": [
          [
            [108.1, 12.5],
            [108.5, 12.4],
            [108.6, 12.8],
            [108.2, 12.9],
            [108.1, 12.5]
          ]
        ]
      }
    }
  ]
}
